ONEWEB-0281             
1 48999U 21060AJ  26003.22895179  .00000125  00000+0  29293-3 0  9997
2 48999  87.9044 261.6165 0001628  74.6578 285.4733 13.16593699217929
ONEWEB-0282             
1 49000U 21060AK  26003.25902332  .00000116  00000+0  27106-3 0  9995
2 49000  87.9043 261.6210 0001427  68.3138 291.8145 13.16594046217905
ONEWEB-0283             
1 49001U 21060AL  26003.24794731  .00000141  00000+0  33502-3 0  9992
2 49001  87.9041 261.6236 0001526  67.7982 292.3311 13.16594187217910
ONEWEB-0284             
1 49002U 21060AM  26003.24160937  .00000197  00000+0  48299-3 0  9998
2 49002  87.9043 261.6146 0001119  75.9015 284.2240 13.16593799217895
ONEWEB-0285             
1 49075U 21075A   26003.08230535 -.00000324  00000+0 -93563-3 0  9996
2 49075  87.8923  23.4478 0001718  91.2221 268.9104 13.12444335213552
ONEWEB-0286             
1 49076U 21075B   26003.29382664 -.00000191  00000+0 -56728-3 0  9995
2 49076  87.8919  23.4378 0001889  95.8755 264.2589 13.12441142212938
ONEWEB-0287             
1 49077U 21075C   26003.15735282  .00000022  00000+0  22786-4 0  9998
2 49077  87.9098  38.6746 0002011 107.3705 252.7647 13.17647998211890
ONEWEB-0288             
1 49078U 21075D   26003.11778523  .00000510  00000+0  13813-2 0  9991
2 49078  87.8923  23.4361 0001659  94.9281 265.2037 13.12444744213533
ONEWEB-0289             
1 49079U 21075E   26003.12010297  .00000176  00000+0  41951-3 0  9993
2 49079  87.9090  38.6947 0001360  98.6442 261.4843 13.17650830212461
ONEWEB-0290             
1 49080U 21075F   26003.09324339  .00000089  00000+0  19586-3 0  9998
2 49080  87.9097  38.6646 0001179  86.9913 273.1353 13.17649226211874
ONEWEB-0291             
1 49081U 21075G   26003.15399382  .00000066  00000+0  13580-3 0  9999
2 49081  87.9100  38.6599 0001688 108.8396 251.2919 13.17649855211874
ONEWEB-0293             
1 49082U 21075H   26003.10337270  .00000049  00000+0  92642-4 0  9991
2 49082  87.9087  38.6881 0001583  96.7181 263.4131 13.17649692211896
ONEWEB-0294             
1 49083U 21075J   26003.12456056  .00000449  00000+0  12133-2 0  9997
2 49083  87.8925  23.4368 0001363  92.5647 267.5637 13.12444000212928
ONEWEB-0295             
1 49084U 21075K   26003.17844848  .00000029  00000+0  42335-4 0  9996
2 49084  87.9089  38.6776 0001758 106.6814 253.4511 13.17650666211862
ONEWEB-0296             
1 49085U 21075L   26003.10422827  .00000304  00000+0  80839-3 0  9995
2 49085  87.8923  23.4441 0001663 104.9612 255.1700 13.12445547212924
ONEWEB-0297             
1 49086U 21075M   26003.28719449  .00000051  00000+0  10607-3 0  9999
2 49086  87.8916  23.4381 0001734  95.3170 264.8156 13.12442173213555
ONEWEB-0298             
1 49087U 21075N   26003.18281410  .00000134  00000+0  31141-3 0  9999
2 49087  87.9088  38.6734 0001927  95.2940 264.8411 13.17649083211898
