[{"OBJECT_NAME":"ONEWEB-0281","OBJECT_ID":"2021-060AJ","EPOCH":"2026-01-03T05:29:41.434656","MEAN_MOTION":13.16593699,"ECCENTRICITY":0.00016282,"INCLINATION":87.9044,"RA_OF_ASC_NODE":261.6165,"ARG_OF_PERICENTER":74.6578,"MEAN_ANOMALY":285.4733,"EPHEMERIS_TYPE":0,"CLASSIFICATION_TYPE":"U","NORAD_CAT_ID":48999,"ELEMENT_SET_NO":999,"REV_AT_EPOCH":21792,"BSTAR":0.00029293498,"MEAN_MOTION_DOT":1.25e-6,"MEAN_MOTION_DDOT":0},{"OBJECT_NAME":"ONEWEB-0282","OBJECT_ID":"2021-060AK","EPOCH":"2026-01-03T06:12:59.614848","MEAN_MOTION":13.16594046,"ECCENTRICITY":0.00014274,"INCLINATION":87.9043,"RA_OF_ASC_NODE":261.621,"ARG_OF_PERICENTER":68.3138,"MEAN_ANOMALY":291.8145,"EPHEMERIS_TYPE":0,"CLASSIFICATION_TYPE":"U","NORAD_CAT_ID":49000,"ELEMENT_SET_NO":999,"REV_AT_EPOCH":21790,"BSTAR":0.0002710623,"MEAN_MOTION_DOT":1.16e-6,"MEAN_MOTION_DDOT":0},{"OBJECT_NAME":"ONEWEB-0283","OBJECT_ID":"2021-060AL","EPOCH":"2026-01-03T05:57:02.647584","MEAN_MOTION":13.16594187,"ECCENTRICITY":0.00015261,"INCLINATION":87.9041,"RA_OF_ASC_NODE":261.6236,"ARG_OF_PERICENTER":67.7982,"MEAN_ANOMALY":292.3311,"EPHEMERIS_TYPE":0,"CLASSIFICATION_TYPE":"U","NORAD_CAT_ID":49001,"ELEMENT_SET_NO":999,"REV_AT_EPOCH":21791,"BSTAR":0.00033502171,"MEAN_MOTION_DOT":1.41e-6,"MEAN_MOTION_DDOT":0},{"OBJECT_NAME":"ONEWEB-0284","OBJECT_ID":"2021-060AM","EPOCH":"2026-01-03T05:47:55.049568","MEAN_MOTION":13.16593799,"ECCENTRICITY":0.0001119,"INCLINATION":87.9043,"RA_OF_ASC_NODE":261.6146,"ARG_OF_PERICENTER":75.9015,"MEAN_ANOMALY":284.224,"EPHEMERIS_TYPE":0,"CLASSIFICATION_TYPE":"U","NORAD_CAT_ID":49002,"ELEMENT_SET_NO":999,"REV_AT_EPOCH":21789,"BSTAR":0.00048299034,"MEAN_MOTION_DOT":1.97e-6,"MEAN_MOTION_DDOT":0},{"OBJECT_NAME":"ONEWEB-0285","OBJECT_ID":"2021-075A","EPOCH":"2026-01-03T01:58:31.182240","MEAN_MOTION":13.12444335,"ECCENTRICITY":0.0001718,"INCLINATION":87.8923,"RA_OF_ASC_NODE":23.4478,"ARG_OF_PERICENTER":91.2221,"MEAN_ANOMALY":268.9104,"EPHEMERIS_TYPE":0,"CLASSIFICATION_TYPE":"U","NORAD_CAT_ID":49075,"ELEMENT_SET_NO":999,"REV_AT_EPOCH":21355,"BSTAR":-0.00093563063,"MEAN_MOTION_DOT":-3.24e-6,"MEAN_MOTION_DDOT":0},{"OBJECT_NAME":"ONEWEB-0286","OBJECT_ID":"2021-075B","EPOCH":"2026-01-03T07:03:06.621696","MEAN_MOTION":13.12441142,"ECCENTRICITY":0.00018893,"INCLINATION":87.8919,"RA_OF_ASC_NODE":23.4378,"ARG_OF_PERICENTER":95.8755,"MEAN_ANOMALY":264.2589,"EPHEMERIS_TYPE":0,"CLASSIFICATION_TYPE":"U","NORAD_CAT_ID":49076,"ELEMENT_SET_NO":999,"REV_AT_EPOCH":21293,"BSTAR":-0.00056727827,"MEAN_MOTION_DOT":-1.91e-6,"MEAN_MOTION_DDOT":0},{"OBJECT_NAME":"ONEWEB-0287","OBJECT_ID":"2021-075C","EPOCH":"2026-01-03T03:46:35.283648","MEAN_MOTION":13.17647998,"ECCENTRICITY":0.0002011,"INCLINATION":87.9098,"RA_OF_ASC_NODE":38.6746,"ARG_OF_PERICENTER":107.3705,"MEAN_ANOMALY":252.7647,"EPHEMERIS_TYPE":0,"CLASSIFICATION_TYPE":"U","NORAD_CAT_ID":49077,"ELEMENT_SET_NO":999,"REV_AT_EPOCH":21189,"BSTAR":2.2785544e-5,"MEAN_MOTION_DOT":2.2e-7,"MEAN_MOTION_DDOT":0},{"OBJECT_NAME":"ONEWEB-0288","OBJECT_ID":"2021-075D","EPOCH":"2026-01-03T02:49:36.643872","MEAN_MOTION":13.12444744,"ECCENTRICITY":0.00016593,"INCLINATION":87.8923,"RA_OF_ASC_NODE":23.4361,"ARG_OF_PERICENTER":94.9281,"MEAN_ANOMALY":265.2037,"EPHEMERIS_TYPE":0,"CLASSIFICATION_TYPE":"U","NORAD_CAT_ID":49078,"ELEMENT_SET_NO":999,"REV_AT_EPOCH":21353,"BSTAR":0.0013813056,"MEAN_MOTION_DOT":5.1e-6,"MEAN_MOTION_DDOT":0},{"OBJECT_NAME":"ONEWEB-0289","OBJECT_ID":"2021-075E","EPOCH":"2026-01-03T02:52:56.896608","MEAN_MOTION":13.1765083,"ECCENTRICITY":0.00013603,"INCLINATION":87.909,"RA_OF_ASC_NODE":38.6947,"ARG_OF_PERICENTER":98.6442,"MEAN_ANOMALY":261.4843,"EPHEMERIS_TYPE":0,"CLASSIFICATION_TYPE":"U","NORAD_CAT_ID":49079,"ELEMENT_SET_NO":999,"REV_AT_EPOCH":21246,"BSTAR":0.00041951107,"MEAN_MOTION_DOT":1.76e-6,"MEAN_MOTION_DDOT":0},{"OBJECT_NAME":"ONEWEB-0290","OBJECT_ID":"2021-075F","EPOCH":"2026-01-03T02:14:16.228896","MEAN_MOTION":13.17649226,"ECCENTRICITY":0.00011796,"INCLINATION":87.9097,"RA_OF_ASC_NODE":38.6646,"ARG_OF_PERICENTER":86.9913,"MEAN_ANOMALY":273.1353,"EPHEMERIS_TYPE":0,"CLASSIFICATION_TYPE":"U","NORAD_CAT_ID":49080,"ELEMENT_SET_NO":999,"REV_AT_EPOCH":21187,"BSTAR":0.00019585676,"MEAN_MOTION_DOT":8.9e-7,"MEAN_MOTION_DDOT":0},{"OBJECT_NAME":"ONEWEB-0291","OBJECT_ID":"2021-075G","EPOCH":"2026-01-03T03:41:45.066048","MEAN_MOTION":13.17649855,"ECCENTRICITY":0.00016886,"INCLINATION":87.91,"RA_OF_ASC_NODE":38.6599,"ARG_OF_PERICENTER":108.8396,"MEAN_ANOMALY":251.2919,"EPHEMERIS_TYPE":0,"CLASSIFICATION_TYPE":"U","NORAD_CAT_ID":49081,"ELEMENT_SET_NO":999,"REV_AT_EPOCH":21187,"BSTAR":0.00013579913,"MEAN_MOTION_DOT":6.6e-7,"MEAN_MOTION_DDOT":0},{"OBJECT_NAME":"ONEWEB-0293","OBJECT_ID":"2021-075H","EPOCH":"2026-01-03T02:28:51.401280","MEAN_MOTION":13.17649692,"ECCENTRICITY":0.0001583,"INCLINATION":87.9087,"RA_OF_ASC_NODE":38.6881,"ARG_OF_PERICENTER":96.7181,"MEAN_ANOMALY":263.4131,"EPHEMERIS_TYPE":0,"CLASSIFICATION_TYPE":"U","NORAD_CAT_ID":49082,"ELEMENT_SET_NO":999,"REV_AT_EPOCH":21189,"BSTAR":9.2642434e-5,"MEAN_MOTION_DOT":4.9e-7,"MEAN_MOTION_DDOT":0},{"OBJECT_NAME":"ONEWEB-0294","OBJECT_ID":"2021-075J","EPOCH":"2026-01-03T02:59:22.032384","MEAN_MOTION":13.12444,"ECCENTRICITY":0.00013631,"INCLINATION":87.8925,"RA_OF_ASC_NODE":23.4368,"ARG_OF_PERICENTER":92.5647,"MEAN_ANOMALY":267.5637,"EPHEMERIS_TYPE":0,"CLASSIFICATION_TYPE":"U","NORAD_CAT_ID":49083,"ELEMENT_SET_NO":999,"REV_AT_EPOCH":21292,"BSTAR":0.0012133085,"MEAN_MOTION_DOT":4.49e-6,"MEAN_MOTION_DDOT":0},{"OBJECT_NAME":"ONEWEB-0295","OBJECT_ID":"2021-075K","EPOCH":"2026-01-03T04:16:57.948672","MEAN_MOTION":13.17650666,"ECCENTRICITY":0.00017586,"INCLINATION":87.9089,"RA_OF_ASC_NODE":38.6776,"ARG_OF_PERICENTER":106.6814,"MEAN_ANOMALY":253.4511,"EPHEMERIS_TYPE":0,"CLASSIFICATION_TYPE":"U","NORAD_CAT_ID":49084,"ELEMENT_SET_NO":999,"REV_AT_EPOCH":21186,"BSTAR":4.2335126e-5,"MEAN_MOTION_DOT":2.9e-7,"MEAN_MOTION_DDOT":0},{"OBJECT_NAME":"ONEWEB-0296","OBJECT_ID":"2021-075L","EPOCH":"2026-01-03T02:30:05.322528","MEAN_MOTION":13.12445547,"ECCENTRICITY":0.00016639,"INCLINATION":87.8923,"RA_OF_ASC_NODE":23.4441,"ARG_OF_PERICENTER":104.9612,"MEAN_ANOMALY":255.17,"EPHEMERIS_TYPE":0,"CLASSIFICATION_TYPE":"U","NORAD_CAT_ID":49085,"ELEMENT_SET_NO":999,"REV_AT_EPOCH":21292,"BSTAR":0.00080839456,"MEAN_MOTION_DOT":3.04e-6,"MEAN_MOTION_DDOT":0},{"OBJECT_NAME":"ONEWEB-0297","OBJECT_ID":"2021-075M","EPOCH":"2026-01-03T06:53:33.603936","MEAN_MOTION":13.12442173,"ECCENTRICITY":0.00017342,"INCLINATION":87.8916,"RA_OF_ASC_NODE":23.4381,"ARG_OF_PERICENTER":95.317,"MEAN_ANOMALY":264.8156,"EPHEMERIS_TYPE":0,"CLASSIFICATION_TYPE":"U","NORAD_CAT_ID":49086,"ELEMENT_SET_NO":999,"REV_AT_EPOCH":21355,"BSTAR":0.00010607361,"MEAN_MOTION_DOT":5.1e-7,"MEAN_MOTION_DDOT":0},{"OBJECT_NAME":"ONEWEB-0298","OBJECT_ID":"2021-075N","EPOCH":"2026-01-03T04:23:15.138240","MEAN_MOTION":13.17649083,"ECCENTRICITY":0.00019272,"INCLINATION":87.9088,"RA_OF_ASC_NODE":38.6734,"ARG_OF_PERICENTER":95.294,"MEAN_ANOMALY":264.8411,"EPHEMERIS_TYPE":0,"CLASSIFICATION_TYPE":"U","NORAD_CAT_ID":49087,"ELEMENT_SET_NO":999,"REV_AT_EPOCH":21189,"BSTAR":0.00031140725,"MEAN_MOTION_DOT":1.34e-6,"MEAN_MOTION_DDOT":0}]
